NORAD_CAT_ID,OBJECT_NAME,OBJECT_TYPE,EPOCH,MEAN_MOTION,ECCENTRICITY,INCLINATION,RA_OF_ASC_NODE,ARG_OF_PERICENTER,MEAN_ANOMALY,BSTAR,MEAN_MOTION_DOT,MEAN_MOTION_DDOT,TLE_LINE0,TLE_LINE1,TLE_LINE2,SEMIMAJOR_AXIS,PERIOD,APOGEE,PERIGEE,DECAYED
50183.0,STARLINK-3281,PAYLOAD,2024-04-23 03:32:18,15.08831462,0.0001792,53.2175,86.6338,130.2484,229.8665,0.00018423,2.645e-05,0.0,0 STARLINK-3281,1 50183U 21125AD  24114.14743124  .00002645  00000-0  18423-3 0  9994,2 50183  53.2175  86.6338 0001792 130.2484 229.8665 15.08831462130029,6917.906,95.438,541.011,538.532,0.0
50183.0,STARLINK-3281,PAYLOAD,2024-04-23 21:01:34,15.08799561,0.0001879,53.2176,83.3632,138.2168,221.8968,0.00048785,7.476e-05,0.0,0 STARLINK-3281,1 50183U 21125AD  24114.87609140  .00007476  00000-0  48785-3 0  9994,2 50183  53.2176  83.3632 0001879 138.2168 221.8968 15.08799561130137,6918.004,95.44,541.169,538.569,0.0
50183.0,STARLINK-3281,PAYLOAD,2024-04-23 22:36:56,15.08840047,0.000132,53.2181,83.073,109.2302,250.8833,-6.8073e-06,-3.96e-06,0.0,0 STARLINK-3281,1 50183U 21125AD  24114.94231568 -.00000396  00000-0 -68073-5 0  9997,2 50183  53.2181  83.0730 0001320 109.2302 250.8833 15.08840047133275,6917.88,95.438,540.658,538.832,0.0
50183.0,STARLINK-3281,PAYLOAD,2024-04-24 03:23:05,15.0884415,0.0001255,53.2179,82.182,95.141,264.9726,1.8214e-05,2e-08,0.0,0 STARLINK-3281,1 50183U 21125AD  24115.14103255  .00000002  00000-0  18214-4 0  9994,2 50183  53.2179  82.1820 0001255  95.1410 264.9726 15.08844150130174,6917.868,95.437,540.601,538.865,0.0
50183.0,STARLINK-3281,PAYLOAD,2024-04-24 06:33:51,15.088472,0.000154,53.2187,81.5863,115.7882,244.3269,5.0131e-05,5.1e-06,0.0,0 STARLINK-3281,1 50183U 21125AD  24115.27350869  .00000510  00000-0  50131-4 0  9991,2 50183  53.2187  81.5863 0001540 115.7882 244.3269 15.08847200133325,6917.858,95.437,540.789,538.658,0.0
50183.0,STARLINK-3281,PAYLOAD,2024-04-25 03:13:52,15.08836536,0.0001421,53.2192,77.7217,99.0111,261.1042,8.3377e-05,1.039e-05,0.0,0 STARLINK-3281,1 50183U 21125AD  24116.13463423  .00001039  00000-0  83377-4 0  9993,2 50183  53.2192  77.7217 0001421  99.0111 261.1042 15.08836536130321,6917.891,95.438,540.739,538.773,0.0
50183.0,STARLINK-3281,PAYLOAD,2024-04-25 06:24:38,15.08831686,0.0001393,53.2189,77.1268,91.3769,268.7383,0.00016488,2.337e-05,0.0,0 STARLINK-3281,1 50183U 21125AD  24116.26711551  .00002337  00000-0  16488-3 0  9995,2 50183  53.2189  77.1268 0001393  91.3769 268.7383 15.08831686133470,6917.906,95.438,540.734,538.807,0.0
50183.0,STARLINK-3281,PAYLOAD,2024-04-26 04:40:03,15.08799117,0.000148,53.2192,72.96,101.9947,258.1212,0.00061549,9.51e-05,0.0,0 STARLINK-3281,1 50183U 21125AD  24117.19448647  .00009510  00000-0  61549-3 0  9999,2 50183  53.2192  72.9600 0001480 101.9947 258.1212 15.08799117130484,6918.005,95.44,540.894,538.846,0.0
50183.0,STARLINK-3281,PAYLOAD,2024-04-26 06:15:25,15.08851606,0.0002166,53.219,72.6608,112.1032,248.019,-5.8012e-05,-1.212e-05,0.0,0 STARLINK-3281,1 50183U 21125AD  24117.26070933 -.00001212  00000-0 -58012-4 0  9991,2 50183  53.2190  72.6608 0002166 112.1032 248.0190 15.08851606130494,6917.845,95.437,541.208,538.212,0.0
50183.0,STARLINK-3281,PAYLOAD,2024-04-26 14:12:20,15.08856427,0.000157,53.2194,71.1782,76.551,283.5657,0.00014928,2.09e-05,0.0,0 STARLINK-3281,1 50183U 21125AD  24117.59189966  .00002090  00000-0  14928-3 0  9994,2 50183  53.2194  71.1782 0001570  76.5510 283.5657 15.08856427133678,6917.83,95.437,540.781,538.609,0.0
50183.0,STARLINK-3281,PAYLOAD,2024-04-26 20:33:54,15.08828221,0.0001427,53.2192,69.987,85.9425,274.1731,-3.8658e-05,-9.03e-06,0.0,0 STARLINK-3281,1 50183U 21125AD  24117.85688192 -.00000903  00000-0 -38658-4 0  9998,2 50183  53.2192  69.9870 0001427  85.9425 274.1731 15.08828221130586,6917.916,95.438,540.769,538.794,0.0
50183.0,STARLINK-3281,PAYLOAD,2024-04-27 04:30:48,15.08848753,0.0001463,53.2188,68.4986,92.7034,267.4125,0.00012903,1.767e-05,0.0,0 STARLINK-3281,1 50183U 21125AD  24118.18806417  .00001767  00000-0  12903-3 0  9998,2 50183  53.2188  68.4986 0001463  92.7034 267.4125 15.08848753130635,6917.854,95.437,540.731,538.707,0.0
50183.0,STARLINK-3281,PAYLOAD,2024-04-27 14:03:06,15.08858551,0.0001521,53.2195,66.714,78.6723,281.444,0.00022033,3.222e-05,0.0,0 STARLINK-3281,1 50183U 21125AD  24118.58549200  .00003222  00000-0  22033-3 0  9999,2 50183  53.2195  66.7140 0001521  78.6723 281.4440 15.08858551133826,6917.824,95.436,540.741,538.636,0.0
50183.0,STARLINK-3281,PAYLOAD,2024-04-28 02:46:14,15.08818995,0.0001012,53.2184,64.337,86.9407,273.1701,-0.00021261,-3.668e-05,0.0,0 STARLINK-3281,1 50183U 21125AD  24119.11545131 -.00003668  00000-0 -21261-3 0  9996,2 50183  53.2184  64.3370 0001012  86.9407 273.1701 15.08818995130776,6917.945,95.439,540.51,539.109,0.0
50183.0,STARLINK-3281,PAYLOAD,2024-04-28 05:57:00,15.08826552,0.0001396,53.218,63.7399,98.5108,261.6042,-0.00014064,-2.525e-05,0.0,0 STARLINK-3281,1 50183U 21125AD  24119.24792555 -.00002525  00000-0 -14064-3 0  9998,2 50183  53.2180  63.7399 0001396  98.5108 261.6042 15.08826552130798,6917.921,95.438,540.752,538.821,0.0
50183.0,STARLINK-3281,PAYLOAD,2024-04-28 13:53:56,15.08833867,0.0001568,53.2193,62.2557,95.1285,264.9886,-6.5567e-05,-1.331e-05,0.0,0 STARLINK-3281,1 50183U 21125AD  24119.57912050 -.00001331  00000-0 -65567-4 0  9997,2 50183  53.2193  62.2557 0001568  95.1285 264.9886 15.08833867133974,6917.899,95.438,540.849,538.679,0.0
50183.0,STARLINK-3281,PAYLOAD,2024-04-29 05:47:46,15.08842955,0.0001449,53.2198,59.2807,90.5237,269.5921,2.3274e-05,8.2e-07,0.0,0 STARLINK-3281,1 50183U 21125AD  24120.24151310  .00000082  00000-0  23274-4 0  9996,2 50183  53.2198  59.2807 0001449  90.5237 269.5921 15.08842955130940,6917.871,95.437,540.739,538.734,0.0
50183.0,STARLINK-3281,PAYLOAD,2024-04-29 20:06:15,15.08827857,0.0001588,53.2201,56.6044,86.6389,273.4785,0.00025996,3.85e-05,0.0,0 STARLINK-3281,1 50183U 21125AD  24120.83767704  .00003850  00000-0  25996-3 0  9999,2 50183  53.2201  56.6044 0001588  86.6389 273.4785 15.08827857131034,6917.918,95.438,540.881,538.684,0.0
50183.0,STARLINK-3281,PAYLOAD,2024-04-30 12:00:06,15.08843039,0.0001403,53.2185,53.634,72.9455,287.1691,0.00022694,3.326e-05,0.0,0 STARLINK-3281,1 50183U 21125AD  24121.50007265  .00003326  00000-0  22694-3 0  9993,2 50183  53.2185  53.6340 0001403  72.9455 287.1691 15.08843039131138,6917.871,95.437,540.707,538.766,0.0
50183.0,STARLINK-3281,PAYLOAD,2024-05-01 02:18:31,15.08879213,0.0001496,53.2188,50.9551,79.6777,280.4384,0.00042656,6.514e-05,0.0,0 STARLINK-3281,1 50183U 21125AD  24122.09620001  .00006514  00000-0  42656-3 0  9999,2 50183  53.2188  50.9551 0001496  79.6777 280.4384 15.08879213131226,6917.761,95.435,540.66,538.591,0.0
50183.0,STARLINK-3281,PAYLOAD,2024-05-01 11:50:52,15.08849689,0.0001531,53.2182,49.1723,71.1786,288.9372,9.248e-05,1.185e-05,0.0,0 STARLINK-3281,1 50183U 21125AD  24122.49366215  .00001185  00000-0  92480-4 0  9997,2 50183  53.2182  49.1723 0001531  71.1786 288.9372 15.08849689131288,6917.851,95.437,540.775,538.657,0.0
50183.0,STARLINK-3281,PAYLOAD,2024-05-01 18:12:26,15.08829003,0.0001806,53.2192,47.9843,77.479,282.6404,-4.39e-05,-9.86e-06,0.0,0 STARLINK-3281,1 50183U 21125AD  24122.75864012 -.00000986  00000-0 -43900-4 0  9997,2 50183  53.2192  47.9843 0001806  77.4790 282.6404 15.08829003131327,6917.914,95.438,541.028,538.53,0.0
50183.0,STARLINK-3281,PAYLOAD,2024-05-02 11:41:40,15.08836624,0.000144,53.2202,44.7142,81.4453,278.6702,-3.9259e-05,-9.13e-06,0.0,0 STARLINK-3281,1 50183U 21125AD  24123.48727728 -.00000913  00000-0 -39259-4 0  9992,2 50183  53.2202  44.7142 0001440  81.4453 278.6702 15.08836624131436,6917.891,95.438,540.752,538.76,0.0
50183.0,STARLINK-3281,PAYLOAD,2024-05-03 05:10:53,15.08852963,0.0001284,53.217,41.441,98.4126,261.7012,-5.3026e-05,-1.132e-05,0.0,0 STARLINK-3281,1 50183U 21125AD  24124.21590149 -.00001132  00000-0 -53026-4 0  9991,2 50183  53.2170  41.4410 0001284  98.4126 261.7012 15.08852963131546,6917.841,95.437,540.594,538.818,0.0
50183.0,STARLINK-3281,PAYLOAD,2024-05-03 22:40:10,15.08817281,0.0001406,53.215,38.1671,127.3296,232.7824,0.00023114,3.39e-05,0.0,0 STARLINK-3281,1 50183U 21125AD  24124.94456685  .00003390  00000-0  23114-3 0  9997,2 50183  53.2150  38.1671 0001406 127.3296 232.7824 15.08817281134784,6917.95,95.439,540.787,538.842,0.0
50183.0,STARLINK-3281,PAYLOAD,2024-05-04 01:50:57,15.08819168,0.0001016,53.2166,37.5732,111.539,248.5711,7.8856e-05,9.67e-06,0.0,0 STARLINK-3281,1 50183U 21125AD  24125.07705074  .00000967  00000-0  78856-4 0  9992,2 50183  53.2166  37.5732 0001016 111.5390 248.5711 15.08819168131670,6917.944,95.439,540.512,539.106,0.0
50183.0,STARLINK-3281,PAYLOAD,2024-05-05 03:17:07,15.08845162,0.000108,53.2162,32.8171,95.0547,265.0568,0.00015398,2.164e-05,0.0,0 STARLINK-3281,1 50183U 21125AD  24126.13688787  .00002164  00000-0  15398-3 0  9993,2 50183  53.2162  32.8171 0001080  95.0547 265.0568 15.08845162131837,6917.865,95.437,540.477,538.982,0.0
50183.0,STARLINK-3281,PAYLOAD,2024-05-05 22:21:44,15.08849799,0.0001267,53.2178,29.2492,107.4785,252.6346,0.0004399,6.722e-05,0.0,0 STARLINK-3281,1 50183U 21125AD  24126.93176541  .00006722  00000-0  43990-3 0  9994,2 50183  53.2178  29.2492 0001267 107.4785 252.6346 15.08849799135086,6917.85,95.437,540.592,538.839,0.0
50183.0,STARLINK-3281,PAYLOAD,2024-05-05 23:57:07,15.08850914,0.0001252,53.2179,28.9525,104.055,256.0581,0.00045507,6.964e-05,0.0,0 STARLINK-3281,1 50183U 21125AD  24126.99800565  .00006964  00000-0  45507-3 0  9994,2 50183  53.2179  28.9525 0001252 104.0550 256.0581 15.08850914135098,6917.847,95.437,540.578,538.846,0.0
50183.0,STARLINK-3281,PAYLOAD,2024-05-06 20:37:07,15.08858779,0.0001305,53.2183,25.0868,104.8169,255.2968,0.0001861,2.677e-05,0.0,0 STARLINK-3281,1 50183U 21125AD  24127.85911583  .00002677  00000-0  18610-3 0  9995,2 50183  53.2183  25.0868 0001305 104.8169 255.2968 15.08858779132098,6917.823,95.436,540.591,538.785,0.0
